STARLINK-3138
1 29430C 21104Y   21325.19062414 -.00818341  00000-0 -27483-2 0  3254
2 29430  53.2175  95.6692 0032117  63.7251 161.5348 15.89260791    17
